#dP2019  4 25  0  0  0.00000000      96 __u+U ITR00 FIT  IAC
## 2050 345600.00000000   900.00000000 58598 0.0000000000000
+   91   C03C05C06C07C08C09C10C11C12C13C14C16E01E02E03E04E05
+        E07E08E09E11E12E13E14E15E18E19E21E24E25E26E27E30E31
+        E33E36G01G02G03G04G05G06G07G08G09G10G11G12G13G14G15
+        G16G17G18G19G20G21G22G23G24G25G26G27G28G29G30G31G32
+        R01R02R03R04R05R07R08R09R10R11R13R14R15R16R17R18R19
+        R20R21R22R23R24R26  0  0  0  0  0  0  0  0  0  0  0
++        13 12  9  8  9  8  8  8  8  8  8  8  5  5  6  5  5
++         5  6  5  5  5  6  6  6  5  5  6  5  5  6  6  6  5
++         5  5  4  3  3  4  4  3  4  4  4  4  4  3  4  4  4
++         4  4  4  4  4  4  4  4  4  3  4  4  4  4  4  4  4
++         5  5  5  6  5  6  6  6  5  5  5  5  5  5  6  5  5
++         6  6  6  5  6  8  0  0  0  0  0  0  0  0  0  0  0
%c M  cc GPS ccc cccc cccc cccc cccc ccccc ccccc ccccc ccccc
%c cc cc ccc ccc cccc cccc cccc cccc ccccc ccccc ccccc ccccc
%f  0.0000000  0.000000000  0.00000000000  0.000000000000000
%f  0.0000000  0.000000000  0.00000000000  0.000000000000000
%i    0    0    0    0      0      0      0      0         0
%i    0    0    0    0      0      0      0      0         0
/*                                                          
/*   RSA / INFORMATION & ANALYSIS CENTER (IAC) OF MCC       
/*   ULTRA-RAPID DETERMINATION                              
/* PCV:IGS14_2045 OL/AL:FES2004  NONE     YN ORB:CoN CLK:CoN
*  2019 04 25  5 45  0.00000000
PC03 -14783.022827  39444.892021    162.732164    195.550075
PC05  21843.524052  36014.399607  -1396.686424   -279.698642
PC06  -7920.884851  31339.886550 -26545.669784    734.142032
PC07 -18847.753685  22320.821937  30382.840678   -319.693149
PC08 -23129.633337  35180.524649  -4118.634658    150.077542
PC09   3830.782539  39460.442162 -13639.269174    712.863698
PC10  -2415.698075  25792.578773  33395.236516   -694.070518
PC11 -13519.922561 -12034.222734  21277.721764   -118.864631
PC12   1420.804474 -27815.213117   -813.327636    608.507481
PC13 -11620.934787  36431.335223 -17984.352214   -673.511730
PC14 -19531.245729 -18366.147873   7895.317736    657.009808
PC16  -3589.423997  34387.100021 -23974.089713   -619.813622
PE01   1464.769612 -16430.058506 -24583.521534   -591.010777
PE02  -1418.217003  16422.796162  24579.879438     57.420811
PE03   5834.206302  25357.598750 -14116.503669   -159.009787
PE04 -19182.698865 -22235.403209  -3709.529442   -268.500877
PE05 -11060.038295  13633.938318 -23824.843972     68.220247
PE07  21404.846636   5997.689725  19561.460616   -175.277194
PE08  19402.081835  22032.770738   3836.699391   6366.709970
PE09 -21338.037583  -5867.414012 -19640.403517   6459.133162
PE11 -18533.608897   4884.829364  22548.291626   5703.294945
PE12  -9392.041285 -16374.367763  22812.885931   6427.841847
PE13  18417.408891  -4859.177629 -22652.488891    386.109314
PE14  18709.698818  16644.304418 -18078.755480   -542.269099
PE15   9637.703617  15960.766453 -22977.553927    912.658624
PE18 -10189.588021 -22975.208907   6823.333203   -640.834940
PE19  -4275.979404 -24747.756603  15678.850184     -6.854476
PE21  22042.249315 -12445.294122 -15353.454377   -530.775728
PE24 -29480.619708   1169.414495  -2525.395210   6114.816684
PE25 -22086.682287  12415.491668  15301.528624   1824.158050
PE26  16684.963502 -22726.126870  -9017.775088   4643.253926
PE27  29436.850246  -1104.981979   2890.401751    483.011580
PE30  19767.560443  10842.942310  19160.682631   4923.750084
PE31 -19542.353842 -10858.052515 -19398.091342   -464.204297
PE33   4806.592551 -27502.960744   9861.328125   -470.489034
PE36 -16439.392367  22878.701776   9071.335770    720.064947
PG01 -11964.110097  21496.506712  -9754.984020     -1.680370
PG02  20567.584267 -12447.089554 -10505.155020   -197.468351
PG03  -6232.795927  14015.770908 -21716.092749    188.330385
PG04  10968.523359  23057.722374   7328.658110    153.337194
PG05  23320.352186  -3662.282477  12256.564617      1.071567
PG06  18130.082864    202.677504 -19373.530093    222.178841
PG07    648.326162  18441.837046  19180.736128    -11.546213
PG08  -8020.215036  17346.521303  18392.324727   -141.175043
PG09   8151.311804  25252.787190    952.693171    422.913256
PG10 -22836.296588 -11387.883845   7786.855912     63.959088
PG11  -8625.622721  25256.945857    -75.457630   -619.813254
PG12   7676.067892 -12961.709258 -22074.296936    248.235666
PG13  13282.541209  -8993.910986  21049.173610    -66.397642
PG14 -15590.559955  -8136.688725 -19643.272807    -83.134120
PG15   6157.426245 -19182.977640  16849.577191   -316.559282
PG16 -22885.589821   1558.994252  13572.358323    -35.199520
PG17  13791.051339  17007.630778 -14690.968870     44.429463
PG18 -17124.672520  20200.548679   -832.288905     47.357227
PG19  15221.134159   8746.399818 -20203.812375   -326.667061
PG20 -16193.373843 -13969.334113  15738.972806    524.236341
PG21  -6321.956846 -15879.899021  21167.432313   -205.556193
PG22 -14156.300423  11816.256230 -18858.016315   -689.798949
PG23   -255.872664  24270.012199  -9960.365220   -188.850662
PG24  13620.920154 -21871.579516  -5842.974457    -65.218512
PG25  -6357.616618 -16102.622155 -20425.711402   -749.438689
PG26 -26191.491560  -3411.580492   3575.661063    184.854862
PG27 -13679.958949   5766.729148  21905.571663   -116.389094
PG28  20947.008469  13864.490190   9080.393645    767.649080
PG29  -3088.201335 -26138.806046  -3592.169107    217.258639
PG30  11246.811533  10893.078598  21475.724498    -92.742469
PG31 -19339.419000    804.599508 -18377.751948     42.672583
PG32 -15894.737842 -13677.123994 -16313.319992   -116.821452
PR01 -19482.653901  -7789.676252 -14486.856256     42.843448
PR02  -6869.548022   8483.132777 -23010.203333    365.402087
PR03   8570.454652  17986.636824 -15856.282432     -5.785943
PR04  19212.712679  16737.448149   1015.659521    303.800478
PR05  18485.107083   6329.306216  16401.890401     26.848244
PR07  -8956.379561 -18169.016076  15566.126879    -18.865068
PR08 -18927.741594 -17105.113657   -139.465796     18.070681
PR09  17618.972539 -12519.960282 -13590.145089     66.267454
PR10   2953.127980 -11792.983811 -22461.354206     48.410088
PR11 -15910.695888  -4719.696610 -19345.463207    -64.041088
PR13 -18728.519684  12270.198700  12195.477094    -22.860431
PR14  -2575.634948  11999.729764  22365.754245     38.278040
PR15  15157.179870   5055.054778  19897.736770    101.560912
PR16  24210.286262  -5251.165777   5792.429543      9.997469
PR17  -2989.768985  24779.440559  -5327.269795    222.994572
PR18   5503.759425  15620.064729 -19360.874919     -9.119722
PR19  11001.934605  -1646.183263 -22953.401354    -27.274766
PR20  10519.008462 -19799.244310 -12209.046620   -376.035027
PR21   2690.137081 -24642.880344   5977.852479    -44.359784
PR22  -6521.034719 -13435.024066  20724.127461    -16.067282
PR23 -11595.970909   7412.246607  21468.123132    223.926333
PR24  -9694.623346  21015.794963  10676.294477   -179.717438
PR26  10711.777890 -18144.780595 -14349.629095    -10.509446
EOF
